{"type": "FeatureCollection", "features": [ {"type": "Feature", "properties": {"norad_id": 33492, "name": "GOSAT (IBUKI)", "group": "resource", "lat": -71.1026286383934, "lon": 125.40775381172537, "alt_km": 676.9086430999387, "timestamp": "2025-12-18T08:58:43.048321+00:00", "meta": {"OBJECT_NAME": "GOSAT (IBUKI)", "OBJECT_ID": "2009-002A", "EPOCH": "2025-12-17T18:34:58.250784", "MEAN_MOTION": 14.67535411, "ECCENTRICITY": 9.763e-05, "INCLINATION": 98.0771, "RA_OF_ASC_NODE": 100.3076, "ARG_OF_PERICENTER": 98.6054, "MEAN_ANOMALY": 261.5261, "EPHEMERIS_TYPE": 0, "CLASSIFICATION_TYPE": "U", "NORAD_CAT_ID": 33492, "ELEMENT_SET_NO": 999, "REV_AT_EPOCH": 90485, "BSTAR": 0.00013150232, "MEAN_MOTION_DOT": 6.98e-06, "MEAN_MOTION_DDOT": 0}, "tle": {"line1": "1 33492U 09002A   25351.77428531  .00000698  00000+0  13150-3 0  9990", "line2": "2 33492  98.0771 100.3076 0000976  98.6054 261.5261 14.67535411904852"}}, "geometry": {"type": "Point", "coordinates": [125.40775381172537, -71.1026286383934]}}, {"type": "Feature", "properties": {"norad_id": 35681, "name": "DEIMOS-1", "group": "resource", "lat": 24.678687324070573, "lon": -23.714908393833063, "alt_km": 644.4837742403861, "timestamp": "2025-12-18T08:58:43.048332+00:00", "meta": {"OBJECT_NAME": "DEIMOS-1", "OBJECT_ID": "2009-041A", "EPOCH": "2025-12-17T22:30:34.617024", "MEAN_MOTION": 14.74960376, "ECCENTRICITY": 0.00026519, "INCLINATION": 97.7141, "RA_OF_ASC_NODE": 152.2985, "ARG_OF_PERICENTER": 70.7662, "MEAN_ANOMALY": 289.3835, "EPHEMERIS_TYPE": 0, "CLASSIFICATION_TYPE": "U", "NORAD_CAT_ID": 35681, "ELEMENT_SET_NO": 999, "REV_AT_EPOCH": 88016, "BSTAR": 7.7939637e-05, "MEAN_MOTION_DOT": 4.76e-06, "MEAN_MOTION_DDOT": 0}, "tle": {"line1": "1 35681U 09041A   25351.93790066  .00000476  00000+0  77940-4 0  9990", "line2": "2 35681  97.7141 152.2985 0002651  70.7662 289.3835 14.74960376880166"}}, "geometry": {"type": "Point", "coordinates": [-23.714908393833063, 24.678687324070573]}}, {"type": "Feature", "properties": {"norad_id": 35682, "name": "DUBAISAT-1", "group": "resource", "lat": 79.39505448298644, "lon": 74.45246353614606, "alt_km": 644.5746926236661, "timestamp": "2025-12-18T08:58:43.048343+00:00", "meta": {"OBJECT_NAME": "DUBAISAT-1", "OBJECT_ID": "2009-041B", "EPOCH": "2025-12-17T19:34:31.012608", "MEAN_MOTION": 14.74618039, "ECCENTRICITY": 0.00093323, "INCLINATION": 97.9795, "RA_OF_ASC_NODE": 122.4207, "ARG_OF_PERICENTER": 296.439, "MEAN_ANOMALY": 63.5861, "EPHEMERIS_TYPE": 0, "CLASSIFICATION_TYPE": "U", "NORAD_CAT_ID": 35682, "ELEMENT_SET_NO": 999, "REV_AT_EPOCH": 87836, "BSTAR": 0.00016792736, "MEAN_MOTION_DOT": 1.07e-05, "MEAN_MOTION_DDOT": 0}, "tle": {"line1": "1 35682U 09041B   25351.81563672  .00001070  00000+0  16793-3 0  9998", "line2": "2 35682  97.9795 122.4207 0009332 296.4390  63.5861 14.74618039878364"}}, "geometry": {"type": "Point", "coordinates": [74.45246353614606, 79.39505448298644]}}, {"type": "Feature", "properties": {"norad_id": 35931, "name": "OCEANSAT-2", "group": "resource", "lat": -1.810395050850756, "lon": 172.14129110313394, "alt_km": 908.5056189428024, "timestamp": "2025-12-18T08:58:43.048354+00:00", "meta": {"OBJECT_NAME": "OCEANSAT-2", "OBJECT_ID": "2009-051A", "EPOCH": "2025-12-17T23:32:07.792800", "MEAN_MOTION": 13.99623591, "ECCENTRICITY": 0.00160737, "INCLINATION": 98.2218, "RA_OF_ASC_NODE": 352.0496, "ARG_OF_PERICENTER": 31.3205, "MEAN_ANOMALY": 328.8916, "EPHEMERIS_TYPE": 0, "CLASSIFICATION_TYPE": "U", "NORAD_CAT_ID": 35931, "ELEMENT_SET_NO": 999, "REV_AT_EPOCH": 85398, "BSTAR": -6.8049847e-05, "MEAN_MOTION_DOT": -1.37e-06, "MEAN_MOTION_DDOT": 0}, "tle": {"line1": "1 35931U 09051A   25351.98064575 -.00000137  00000+0 -68050-4 0  9991", "line2": "2 35931  98.2218 352.0496 0016073  31.3205 328.8916 13.99623591853981"}}, "geometry": {"type": "Point", "coordinates": [172.14129110313394, -1.810395050850756]}}, {"type": "Feature", "properties": {"norad_id": 35946, "name": "WORLDVIEW-2 (WV-2)", "group": "resource", "lat": -5.298373975678725, "lon": 64.1738555315196, "alt_km": 767.9366128235615, "timestamp": "2025-12-18T08:58:43.048364+00:00", "meta": {"OBJECT_NAME": "WORLDVIEW-2 (WV-2)", "OBJECT_ID": "2009-055A", "EPOCH": "2025-12-17T19:38:28.836384", "MEAN_MOTION": 14.37726223, "ECCENTRICITY": 0.0005025, "INCLINATION": 98.4784, "RA_OF_ASC_NODE": 62.8332, "ARG_OF_PERICENTER": 58.2904, "MEAN_ANOMALY": 301.8773, "EPHEMERIS_TYPE": 0, "CLASSIFICATION_TYPE": "U", "NORAD_CAT_ID": 35946, "ELEMENT_SET_NO": 999, "REV_AT_EPOCH": 84958, "BSTAR": 6.3291976e-05, "MEAN_MOTION_DOT": 1.47e-06, "MEAN_MOTION_DDOT": 0}, "tle": {"line1": "1 35946U 09055A   25351.81838931  .00000147  00000+0  63292-4 0  9990", "line2": "2 35946  98.4784  62.8332 0005025  58.2904 301.8773 14.37726223849583"}}, "geometry": {"type": "Point", "coordinates": [64.1738555315196, -5.298373975678725]}}, {"type": "Feature", "properties": {"norad_id": 36036, "name": "SMOS", "group": "resource", "lat": 69.3771621388708, "lon": 154.10745553354843, "alt_km": 751.815346643787, "timestamp": "2025-12-18T08:58:43.048375+00:00", "meta": {"OBJECT_NAME": "SMOS", "OBJECT_ID": "2009-059A", "EPOCH": "2025-12-17T12:38:04.074720", "MEAN_MOTION": 14.39745469, "ECCENTRICITY": 0.00010941, "INCLINATION": 98.438, "RA_OF_ASC_NODE": 176.504, "ARG_OF_PERICENTER": 82.4304, "MEAN_ANOMALY": 277.7008, "EPHEMERIS_TYPE": 0, "CLASSIFICATION_TYPE": "U", "NORAD_CAT_ID": 36036, "ELEMENT_SET_NO": 999, "REV_AT_EPOCH": 84731, "BSTAR": 0.00012015761, "MEAN_MOTION_DOT": 3.33e-06, "MEAN_MOTION_DDOT": 0}, "tle": {"line1": "1 36036U 09059A   25351.52643605  .00000333  00000+0  12016-3 0  9999", "line2": "2 36036  98.4380 176.5040 0001094  82.4304 277.7008 14.39745469847316"}}, "geometry": {"type": "Point", "coordinates": [154.10745553354843, 69.3771621388708]}}, {"type": "Feature", "properties": {"norad_id": 36110, "name": "YAOGAN-7", "group": "resource", "lat": -53.62632457270514, "lon": -114.8399731290502, "alt_km": 631.5869044653036, "timestamp": "2025-12-18T08:58:43.048385+00:00", "meta": {"OBJECT_NAME": "YAOGAN-7", "OBJECT_ID": "2009-069A", "EPOCH": "2025-12-17T21:50:54.408480", "MEAN_MOTION": 14.77740019, "ECCENTRICITY": 0.00233304, "INCLINATION": 98.0297, "RA_OF_ASC_NODE": 233.6487, "ARG_OF_PERICENTER": 263.6435, "MEAN_ANOMALY": 96.2118, "EPHEMERIS_TYPE": 0, "CLASSIFICATION_TYPE": "U", "NORAD_CAT_ID": 36110, "ELEMENT_SET_NO": 999, "REV_AT_EPOCH": 86285, "BSTAR": 7.9642768e-05, "MEAN_MOTION_DOT": 5.2e-06, "MEAN_MOTION_DDOT": 0}, "tle": {"line1": "1 36110U 09069A   25351.91035195  .00000520  00000+0  79643-4 0  9993", "line2": "2 36110  98.0297 233.6487 0023330 263.6435  96.2118 14.77740019862857"}}, "geometry": {"type": "Point", "coordinates": [-114.8399731290502, -53.62632457270514]}}, {"type": "Feature", "properties": {"norad_id": 36605, "name": "TANDEM-X", "group": "resource", "lat": -49.829940877527974, "lon": 6.582560302441797, "alt_km": 516.1205093259232, "timestamp": "2025-12-18T08:58:43.048395+00:00", "meta": {"OBJECT_NAME": "TANDEM-X", "OBJECT_ID": "2010-030A", "EPOCH": "2025-12-17T14:13:48.411552", "MEAN_MOTION": 15.19149806, "ECCENTRICITY": 0.00018481, "INCLINATION": 97.4443, "RA_OF_ASC_NODE": 356.9023, "ARG_OF_PERICENTER": 79.8054, "MEAN_ANOMALY": 280.3389, "EPHEMERIS_TYPE": 0, "CLASSIFICATION_TYPE": "U", "NORAD_CAT_ID": 36605, "ELEMENT_SET_NO": 999, "REV_AT_EPOCH": 85907, "BSTAR": 4.6537622e-05, "MEAN_MOTION_DOT": 9.1e-06, "MEAN_MOTION_DDOT": 0}, "tle": {"line1": "1 36605U 10030A   25351.59292143  .00000910  00000+0  46538-4 0  9994", "line2": "2 36605  97.4443 356.9023 0001848  79.8054 280.3389 15.19149806859071"}}, "geometry": {"type": "Point", "coordinates": [6.582560302441797, -49.829940877527974]}}, {"type": "Feature", "properties": {"norad_id": 36795, "name": "CARTOSAT-2B", "group": "resource", "lat": -71.24661842434197, "lon": -162.54177561998526, "alt_km": 649.4417014330857, "timestamp": "2025-12-18T08:58:43.048405+00:00", "meta": {"OBJECT_NAME": "CARTOSAT-2B", "OBJECT_ID": "2010-035A", "EPOCH": "2025-12-17T23:43:08.273280", "MEAN_MOTION": 14.78733205, "ECCENTRICITY": 0.0012916, "INCLINATION": 97.7853, "RA_OF_ASC_NODE": 40.8484, "ARG_OF_PERICENTER": 60.9349, "MEAN_ANOMALY": 299.3154, "EPHEMERIS_TYPE": 0, "CLASSIFICATION_TYPE": "U", "NORAD_CAT_ID": 36795, "ELEMENT_SET_NO": 999, "REV_AT_EPOCH": 83307, "BSTAR": 0.00012445652, "MEAN_MOTION_DOT": 8.65e-06, "MEAN_MOTION_DDOT": 0}, "tle": {"line1": "1 36795U 10035A   25351.98829020  .00000865  00000+0  12446-3 0  9991", "line2": "2 36795  97.7853  40.8484 0012916  60.9349 299.3154 14.78733205833073"}}, "geometry": {"type": "Point", "coordinates": [-162.54177561998526, -71.24661842434197]}}, {"type": "Feature", "properties": {"norad_id": 36834, "name": "YAOGAN-10", "group": "resource", "lat": 81.72111359358209, "lon": -94.91049732530752, "alt_km": 606.3515184009275, "timestamp": "2025-12-18T08:58:43.048416+00:00", "meta": {"OBJECT_NAME": "YAOGAN-10", "OBJECT_ID": "2010-038A", "EPOCH": "2025-12-17T23:15:18.504288", "MEAN_MOTION": 14.84627265, "ECCENTRICITY": 0.00013781, "INCLINATION": 97.9139, "RA_OF_ASC_NODE": 11.7508, "ARG_OF_PERICENTER": 82.2697, "MEAN_ANOMALY": 6.1042, "EPHEMERIS_TYPE": 0, "CLASSIFICATION_TYPE": "U", "NORAD_CAT_ID": 36834, "ELEMENT_SET_NO": 999, "REV_AT_EPOCH": 83031, "BSTAR": 0.00020818132, "MEAN_MOTION_DOT": 1.706e-05, "MEAN_MOTION_DDOT": 0}, "tle": {"line1": "1 36834U 10038A   25351.96896417  .00001706  00000+0  20818-3 0  9997", "line2": "2 36834  97.9139  11.7508 0001378  82.2697   6.1042 14.84627265830312"}}, "geometry": {"type": "Point", "coordinates": [-94.91049732530752, 81.72111359358209]}}]}